(G-CODE GENERATED BY FLATCAM v2024.4 - www.flatcam.org - Version Date: 2024/04/15)

(Name: eHSI_pcb-PTH.drl_edit_cnc)
(Type: G-code from Geometry)
(Units: MM)

(Created on Tuesday, 05 May 2026 at 17:21)

(This preprocessor is the default preprocessor used by FlatCAM.)
(It is made to work with MACH3 compatible motion controllers.)


(TOOLS DIAMETER: )
(Tool: 1 -> Dia: 1.0)

(FEEDRATE Z: )
(Tool: 1 -> Feedrate: 300)

(FEEDRATE RAPIDS: )
(Tool: 1 -> Feedrate Rapids: 1500)

(Z_CUT: )
(Tool: 1 -> Z_Cut: -1.9000000000000001)

(Tools Offset: )
(Tool: 1 -> Offset Z: 0.0)

(Z_MOVE: )
(Tool: 1 -> Z_Move: 6.0)

(Z Toolchange: 15 mm)
(X,Y Toolchange: 0.0000, 0.0000 mm)
(Z Start: None mm)
(Z End: 0.5 mm)
(X,Y End: None mm)
(Steps per circle: 64)
(Preprocessor Excellon: default)

(X range:    4.9000 ...   78.2200  mm)
(Y range:   25.9900 ...   32.4000  mm)

(Spindle Speed: 0 RPM)
G21
G90
G94

G01 F300.00

M5
G00 Z15.0000
T1
G00 X0.0000 Y0.0000                
M6
(MSG, Change to Tool Dia = 1.0000 ||| Total drills for tool T1 = 6)
M0
G00 Z15.0000

G01 F300.00
M03
G00 X5.4000 Y31.9000
G01 Z-1.9000
G01 Z0
G00 Z6.0000
G00 X5.4000 Y31.9000
G01 Z-1.9000
G01 Z0
G00 Z6.0000
G00 X5.4000 Y29.3600
G01 Z-1.9000
G01 Z0
G00 Z6.0000
G00 X5.4000 Y26.8200
G01 Z-1.9000
G01 Z0
G00 Z6.0000
G00 X77.7200 Y26.4900
G01 Z-1.9000
G01 Z0
G00 Z6.0000
G00 X77.7200 Y29.0300
G01 Z-1.9000
G01 Z0
G00 Z6.0000
G00 X77.7200 Y31.5700
G01 Z-1.9000
G01 Z0
G00 Z6.0000
M05
G00 Z0.50
M2
