(G-CODE GENERATED BY FLATCAM v2024.4 - www.flatcam.org - Version Date: 2024/04/15)

(Name: eHSI_pcb-F_Cu.gbr_iso_combined_cnc)
(Type: G-code from Geometry)
(Units: MM)

(Created on Tuesday, 05 May 2026 at 17:31)

(This preprocessor is the default preprocessor used by FlatCAM.)
(It is made to work with MACH3 compatible motion controllers.)

(TOOL DIAMETER: 0.2 mm)
(Feedrate_XY: 120.0 mm/min)
(Feedrate_Z: 60.0 mm/min)
(Feedrate rapids 1500.0 mm/min)

(Z_Cut: -0.0 mm)
(Z_Move: 6.0 mm)
(Z Start: None mm)
(Z End: 15.0 mm)
(X,Y End: None mm)
(Steps per circle: 64)
(Preprocessor Geometry: default)

(X range:    2.5999 ...   79.9001  mm)
(Y range:    3.3966 ...   32.8500  mm)

(Spindle Speed: 0.0 RPM)
G21
G90
G94

G01 F120.00

M5
G00 Z15.0000
G00 X0.0000 Y0.0000
T1
M6    
(MSG, Change to Tool Dia = 0.2000)
M0
G00 Z15.0000

M03
G01 F120.00
G00 X15.2579 Y3.7068
G01 F60.00
G01 Z-0.115
G01 F120.00
G01 X14.0025 Y4.9622
G01 X13.9761 Y4.9950
G01 X13.9275 Y5.1014
G01 X13.9111 Y5.2154
G01 X13.9275 Y5.3294
G01 X13.9761 Y5.4358
G01 X14.0025 Y5.4685
G01 X15.4768 Y6.9428
G01 X15.5096 Y6.9692
G01 X15.6160 Y7.0178
G01 X15.7300 Y7.0342
G01 X15.8440 Y7.0178
G01 X15.9504 Y6.9692
G01 X15.9831 Y6.9429
G01 X17.4574 Y5.4685
G01 X17.4838 Y5.4358
G01 X17.5324 Y5.3294
G01 X17.5488 Y5.2154
G01 X17.5324 Y5.1014
G01 X17.4838 Y4.9950
G01 X17.4574 Y4.9623
G01 X15.9831 Y3.4879
G01 X15.9504 Y3.4615
G01 X15.8440 Y3.4129
G01 X15.7300 Y3.3966
G01 X15.6160 Y3.4129
G01 X15.5096 Y3.4615
G01 X15.4768 Y3.4879
G01 X15.2579 Y3.7068
G00 Z6.0000
G00 X20.3654 Y8.7460
G01 F60.00
G01 Z-0.115
G01 F120.00
G01 X20.3654 Y8.7558
G01 X20.3602 Y8.8587
G01 X20.3444 Y8.9655
G01 X20.3181 Y9.0702
G01 X20.2818 Y9.1719
G01 X20.2356 Y9.2695
G01 X20.1801 Y9.3620
G01 X20.1158 Y9.4488
G01 X20.0433 Y9.5287
G01 X19.9633 Y9.6012
G01 X19.8766 Y9.6655
G01 X19.7840 Y9.7210
G01 X19.6864 Y9.7672
G01 X19.5848 Y9.8036
G01 X19.4801 Y9.8298
G01 X19.3733 Y9.8456
G01 X19.2655 Y9.8509
G01 X19.1577 Y9.8456
G01 X19.0509 Y9.8298
G01 X18.9462 Y9.8036
G01 X18.8445 Y9.7672
G01 X18.7470 Y9.7210
G01 X18.6544 Y9.6655
G01 X18.5677 Y9.6012
G01 X18.4877 Y9.5287
G01 X18.4152 Y9.4488
G01 X18.3509 Y9.3620
G01 X18.2954 Y9.2695
G01 X18.2492 Y9.1719
G01 X18.2129 Y9.0702
G01 X18.1866 Y8.9655
G01 X18.1708 Y8.8587
G01 X18.1655 Y8.7509
G01 X18.1708 Y8.6431
G01 X18.1866 Y8.5363
G01 X18.2129 Y8.4316
G01 X18.2492 Y8.3300
G01 X18.2954 Y8.2324
G01 X18.3509 Y8.1398
G01 X18.4152 Y8.0531
G01 X18.4877 Y7.9731
G01 X18.5677 Y7.9006
G01 X18.6544 Y7.8363
G01 X18.7470 Y7.7808
G01 X18.8445 Y7.7347
G01 X18.9462 Y7.6983
G01 X19.0509 Y7.6721
G01 X19.1577 Y7.6562
G01 X19.2655 Y7.6509
G01 X19.3733 Y7.6562
G01 X19.4801 Y7.6721
G01 X19.5848 Y7.6983
G01 X19.6864 Y7.7347
G01 X19.7840 Y7.7808
G01 X19.8766 Y7.8363
G01 X19.9633 Y7.9006
G01 X20.0433 Y7.9731
G01 X20.1158 Y8.0531
G01 X20.1801 Y8.1398
G01 X20.2356 Y8.2324
G01 X20.2818 Y8.3300
G01 X20.3181 Y8.4316
G01 X20.3444 Y8.5363
G01 X20.3602 Y8.6431
G01 X20.3654 Y8.7460
G00 Z6.0000
G00 X8.7643 Y16.5709
G01 F60.00
G01 Z-0.115
G01 F120.00
G01 X8.5790 Y16.7099
G01 X8.9728 Y17.0805
G01 X7.1661 Y18.9683
G01 X5.5099 Y17.3469
G01 X7.2587 Y15.4475
G01 X7.7220 Y15.8992
G01 X7.8841 Y15.7255
G00 Z6.0000
G00 X3.9870 Y15.4031
G01 F60.00
G01 Z-0.115
G01 F120.00
G01 X3.9920 Y15.3977
G01 X5.4080 Y13.9818
G01 X5.4154 Y13.9754
G01 X5.4234 Y13.9697
G01 X5.4319 Y13.9649
G01 X5.4409 Y13.9609
G01 X5.4502 Y13.9578
G01 X5.4598 Y13.9557
G01 X5.4696 Y13.9545
G01 X5.4794 Y13.9543
G01 X5.4892 Y13.9550
G01 X5.4964 Y13.9561
G01 X5.5059 Y13.9585
G01 X5.5152 Y13.9618
G01 X5.5241 Y13.9660
G01 X5.5325 Y13.9711
G01 X5.5404 Y13.9769
G01 X5.5476 Y13.9835
G01 X6.9618 Y15.3977
G01 X6.9684 Y15.4050
G01 X6.9729 Y15.4109
G01 X6.9781 Y15.4191
G01 X6.9815 Y15.4257
G01 X6.9844 Y15.4324
G01 X6.9875 Y15.4418
G01 X6.9892 Y15.4489
G01 X6.9904 Y15.4562
G01 X6.9911 Y15.4684
G01 X6.9906 Y15.4782
G01 X6.9892 Y15.4879
G01 X6.9861 Y15.4998
G01 X6.9825 Y15.5090
G01 X6.9769 Y15.5198
G01 X6.9700 Y15.5300
G01 X6.9635 Y15.5374
G01 X5.5476 Y16.9534
G01 X5.5384 Y16.9615
G01 X5.5304 Y16.9671
G01 X5.5241 Y16.9708
G01 X5.5174 Y16.9741
G01 X5.5106 Y16.9768
G01 X5.5036 Y16.9790
G01 X5.4964 Y16.9807
G01 X5.4892 Y16.9819
G01 X5.4818 Y16.9825
G01 X5.4745 Y16.9826
G01 X5.4671 Y16.9822
G01 X5.4598 Y16.9812
G01 X5.4502 Y16.9790
G01 X5.4432 Y16.9768
G01 X5.4364 Y16.9741
G01 X5.4298 Y16.9708
G01 X5.4234 Y16.9671
G01 X5.4173 Y16.9630
G01 X5.4116 Y16.9584
G01 X5.4062 Y16.9534
G01 X5.1001 Y16.6473
G01 X5.1002 Y18.4343
G01 X5.6829 Y19.0171
G01 X5.7077 Y19.0443
G01 X5.7299 Y19.0737
G01 X5.7353 Y19.0818
G01 X5.7529 Y19.1114
G01 X5.7697 Y19.1469
G01 X5.7829 Y19.1838
G01 X5.7914 Y19.2171
G01 X5.7933 Y19.2268
G01 X5.7984 Y19.2632
G01 X5.8001 Y19.3000
G01 X5.8002 Y25.9595
G01 X5.8500 Y25.9834
G01 X5.9257 Y26.0288
G01 X5.9988 Y26.0826
G01 X6.0046 Y26.0872
G01 X6.0718 Y26.1482
G01 X6.1312 Y26.2136
G01 X6.1374 Y26.2212
G01 X6.1912 Y26.2943
G01 X6.2378 Y26.3722
G01 X6.2757 Y26.4520
G01 X6.2795 Y26.4610
G01 X6.3091 Y26.5442
G01 X6.3307 Y26.6299
G01 X6.3326 Y26.6395
G01 X6.3454 Y26.7269
G01 X6.3500 Y26.8175
G01 X6.3499 Y26.8249
G01 X6.3454 Y26.9131
G01 X6.3317 Y27.0053
G01 X6.3091 Y27.0958
G01 X6.2795 Y27.1790
G01 X6.2757 Y27.1880
G01 X6.2400 Y27.2634
G01 X6.2354 Y27.2721
G01 X6.1899 Y27.3478
G01 X6.1374 Y27.4188
G01 X6.1312 Y27.4264
G01 X6.0718 Y27.4918
G01 X6.0027 Y27.5544
G01 X5.9278 Y27.6099
G01 X5.8478 Y27.6578
G01 X5.7635 Y27.6977
G01 X5.6758 Y27.7291
G01 X5.5853 Y27.7517
G01 X5.4956 Y27.7652
G01 X5.4882 Y27.7658
G01 X5.4000 Y27.7700
G01 X5.3069 Y27.7654
G01 X5.2147 Y27.7517
G01 X5.1242 Y27.7291
G01 X5.0365 Y27.6977
G01 X4.9522 Y27.6578
G01 X4.8722 Y27.6099
G01 X4.7973 Y27.5544
G01 X4.7282 Y27.4918
G01 X4.6656 Y27.4227
G01 X4.6101 Y27.3478
G01 X4.5622 Y27.2678
G01 X4.5223 Y27.1835
G01 X4.4909 Y27.0958
G01 X4.4683 Y27.0053
G01 X4.4548 Y26.9156
G01 X4.4501 Y26.8249
G01 X4.4501 Y26.8151
G01 X4.4546 Y26.7269
G01 X4.4683 Y26.6347
G01 X4.4909 Y26.5442
G01 X4.5205 Y26.4610
G01 X4.5243 Y26.4520
G01 X4.5634 Y26.3700
G01 X4.6101 Y26.2922
G01 X4.6626 Y26.2212
G01 X4.6688 Y26.2136
G01 X4.7300 Y26.1465
G01 X4.7973 Y26.0856
G01 X4.8702 Y26.0315
G01 X4.8764 Y26.0275
G01 X4.9500 Y25.9834
G01 X4.9999 Y25.9595
G01 X4.9998 Y19.4657
G01 X4.4171 Y18.8829
G01 X4.3923 Y18.8557
G01 X4.3673 Y18.8223
G01 X4.3495 Y18.7929
G01 X4.3449 Y18.7842
G01 X4.3303 Y18.7531
G01 X4.3216 Y18.7292
G01 X4.3164 Y18.7138
G01 X4.3086 Y18.6829
G01 X4.3067 Y18.6732
G01 X4.3018 Y18.6392
G01 X4.2999 Y18.6000
G01 X4.3000 Y16.2404
G01 X4.3018 Y16.2061
G01 X4.3075 Y16.1673
G01 X4.3171 Y16.1292
G01 X4.3303 Y16.0922
G01 X4.3471 Y16.0567
G01 X4.3673 Y16.0230
G01 X4.3907 Y15.9915
G01 X4.4162 Y15.9633
G01 X3.9920 Y15.5391
G01 X3.9839 Y15.5300
G01 X3.9796 Y15.5240
G01 X3.9745 Y15.5156
G01 X3.9713 Y15.5090
G01 X3.9677 Y15.4998
G01 X3.9657 Y15.4927
G01 X3.9638 Y15.4831
G01 X3.9630 Y15.4758
G01 X3.9627 Y15.4660
G01 X3.9632 Y15.4586
G01 X3.9646 Y15.4489
G01 X3.9670 Y15.4394
G01 X3.9694 Y15.4324
G01 X3.9723 Y15.4257
G01 X3.9769 Y15.4170
G01 X3.9809 Y15.4109
G01 X3.9870 Y15.4031
G00 Z6.0000
G00 X5.3951 Y28.4101
G01 F60.00
G01 Z-0.115
G01 F120.00
G01 X5.4049 Y28.4101
G01 X5.4882 Y28.4142
G01 X5.4980 Y28.4152
G01 X5.5853 Y28.4283
G01 X5.6758 Y28.4509
G01 X5.7590 Y28.4805
G01 X5.7680 Y28.4843
G01 X5.8478 Y28.5222
G01 X5.9257 Y28.5688
G01 X5.9988 Y28.6226
G01 X6.0064 Y28.6288
G01 X6.0718 Y28.6882
G01 X6.1328 Y28.7554
G01 X6.1374 Y28.7612
G01 X6.1912 Y28.8343
G01 X6.2366 Y28.9100
G01 X6.2605 Y28.9599
G01 X6.6743 Y28.9599
G01 X7.1999 Y28.4343
G01 X7.1999 Y20.4164
G01 X7.2018 Y20.3772
G01 X7.2071 Y20.3408
G01 X7.2158 Y20.3050
G01 X7.2186 Y20.2956
G01 X7.2303 Y20.2633
G01 X7.2449 Y20.2322
G01 X7.2495 Y20.2235
G01 X7.2673 Y20.1941
G01 X7.2877 Y20.1664
G01 X7.2939 Y20.1588
G01 X7.3171 Y20.1335
G01 X7.9517 Y19.4988
G01 X7.5275 Y19.0747
G01 X7.5194 Y19.0655
G01 X7.5151 Y19.0595
G01 X7.5112 Y19.0533
G01 X7.5068 Y19.0445
G01 X7.5041 Y19.0377
G01 X7.5019 Y19.0306
G01 X7.5002 Y19.0235
G01 X7.4990 Y19.0162
G01 X7.4984 Y19.0089
G01 X7.4983 Y19.0015
G01 X7.4987 Y18.9942
G01 X7.4997 Y18.9869
G01 X7.5012 Y18.9797
G01 X7.5033 Y18.9726
G01 X7.5058 Y18.9657
G01 X7.5089 Y18.9590
G01 X7.5137 Y18.9505
G01 X7.5209 Y18.9405
G01 X7.5275 Y18.9333
G01 X8.9435 Y17.5173
G01 X8.9490 Y17.5125
G01 X8.9549 Y17.5080
G01 X8.9653 Y17.5016
G01 X8.9765 Y17.4965
G01 X8.9834 Y17.4941
G01 X8.9905 Y17.4922
G01 X8.9978 Y17.4908
G01 X9.0051 Y17.4900
G01 X9.0174 Y17.4899
G01 X9.0247 Y17.4905
G01 X9.0320 Y17.4917
G01 X9.0438 Y17.4948
G01 X9.0552 Y17.4994
G01 X9.0659 Y17.5053
G01 X9.0759 Y17.5125
G01 X9.0832 Y17.5190
G01 X10.4974 Y18.9333
G01 X10.5040 Y18.9405
G01 X10.5111 Y18.9505
G01 X10.5171 Y18.9612
G01 X10.5208 Y18.9703
G01 X10.5237 Y18.9797
G01 X10.5259 Y18.9917
G01 X10.5267 Y19.0040
G01 X10.5262 Y19.0138
G01 X10.5247 Y19.0235
G01 X10.5230 Y19.0306
G01 X10.5208 Y19.0377
G01 X10.5171 Y19.0467
G01 X10.5124 Y19.0554
G01 X10.5084 Y19.0615
G01 X10.5040 Y19.0674
G01 X10.4974 Y19.0747
G01 X9.0832 Y20.4889
G01 X9.0759 Y20.4955
G01 X9.0659 Y20.5027
G01 X9.0596 Y20.5064
G01 X9.0530 Y20.5096
G01 X9.0461 Y20.5123
G01 X9.0391 Y20.5146
G01 X9.0295 Y20.5167
G01 X9.0222 Y20.5177
G01 X9.0149 Y20.5182
G01 X9.0075 Y20.5181
G01 X9.0002 Y20.5174
G01 X8.9929 Y20.5163
G01 X8.9858 Y20.5146
G01 X8.9788 Y20.5123
G01 X8.9697 Y20.5086
G01 X8.9632 Y20.5052
G01 X8.9569 Y20.5013
G01 X8.9509 Y20.4970
G01 X8.9417 Y20.4889
G01 X8.5176 Y20.0647
G01 X8.0001 Y20.5822
G01 X8.0001 Y28.6000
G01 X7.9982 Y28.6392
G01 X7.9933 Y28.6732
G01 X7.9914 Y28.6829
G01 X7.9822 Y28.7185
G01 X7.9715 Y28.7486
G01 X7.9677 Y28.7576
G01 X7.9529 Y28.7886
G01 X7.9353 Y28.8182
G01 X7.9299 Y28.8263
G01 X7.9093 Y28.8539
G01 X7.8847 Y28.8812
G01 X7.1212 Y29.6447
G01 X7.0976 Y29.6661
G01 X7.0900 Y29.6723
G01 X7.0623 Y29.6927
G01 X7.0329 Y29.7105
G01 X7.0242 Y29.7151
G01 X6.9931 Y29.7297
G01 X6.9562 Y29.7429
G01 X6.9181 Y29.7525
G01 X6.8768 Y29.7584
G01 X6.8400 Y29.7601
G01 X6.2605 Y29.7602
G01 X6.2366 Y29.8100
G01 X6.1925 Y29.8836
G01 X6.1885 Y29.8898
G01 X6.1344 Y29.9627
G01 X6.0735 Y30.0300
G01 X6.0064 Y30.0912
G01 X5.9988 Y30.0974
G01 X5.9278 Y30.1499
G01 X5.8500 Y30.1966
G01 X5.7680 Y30.2357
G01 X5.7590 Y30.2395
G01 X5.6758 Y30.2691
G01 X5.5853 Y30.2917
G01 X5.4931 Y30.3054
G01 X5.4049 Y30.3099
G01 X5.3951 Y30.3099
G01 X5.3044 Y30.3052
G01 X5.2147 Y30.2917
G01 X5.1242 Y30.2691
G01 X5.0365 Y30.2377
G01 X4.9522 Y30.1978
G01 X4.8722 Y30.1499
G01 X4.7973 Y30.0944
G01 X4.7282 Y30.0318
G01 X4.6688 Y29.9664
G01 X4.6626 Y29.9588
G01 X4.6101 Y29.8878
G01 X4.5646 Y29.8121
G01 X4.5600 Y29.8034
G01 X4.5243 Y29.7280
G01 X4.5205 Y29.7190
G01 X4.4909 Y29.6358
G01 X4.4683 Y29.5453
G01 X4.4546 Y29.4531
G01 X4.4501 Y29.3649
G01 X4.4501 Y29.3551
G01 X4.4546 Y29.2669
G01 X4.4683 Y29.1747
G01 X4.4909 Y29.0842
G01 X4.5223 Y28.9965
G01 X4.5622 Y28.9122
G01 X4.6101 Y28.8322
G01 X4.6656 Y28.7573
G01 X4.7282 Y28.6882
G01 X4.7973 Y28.6256
G01 X4.8722 Y28.5701
G01 X4.9522 Y28.5222
G01 X5.0365 Y28.4823
G01 X5.1242 Y28.4509
G01 X5.2147 Y28.4283
G01 X5.3069 Y28.4146
G01 X5.3951 Y28.4101
G00 Z6.0000
G00 X2.6014 Y31.2343
G01 F60.00
G01 Z-0.115
G01 F120.00
G01 X2.5999 Y31.2000
G01 X2.5999 Y14.2000
G01 X2.6020 Y14.1583
G01 X2.6075 Y14.1219
G01 X2.6171 Y14.0838
G01 X2.6303 Y14.0469
G01 X2.6449 Y14.0158
G01 X2.6495 Y14.0071
G01 X2.6647 Y13.9818
G01 X2.6701 Y13.9737
G01 X2.6907 Y13.9461
G01 X2.7153 Y13.9188
G01 X5.0171 Y11.6171
G01 X5.0461 Y11.5907
G01 X5.0757 Y11.5687
G01 X5.1071 Y11.5495
G01 X5.1158 Y11.5449
G01 X5.1469 Y11.5303
G01 X5.1838 Y11.5171
G01 X5.2219 Y11.5075
G01 X5.2559 Y11.5024
G01 X5.2657 Y11.5014
G01 X5.3000 Y11.4999
G01 X12.5343 Y11.4998
G01 X20.3171 Y3.7171
G01 X20.3424 Y3.6939
G01 X20.3500 Y3.6877
G01 X20.3777 Y3.6673
G01 X20.4114 Y3.6471
G01 X20.4469 Y3.6303
G01 X20.4792 Y3.6186
G01 X20.4886 Y3.6158
G01 X20.5243 Y3.6071
G01 X20.5608 Y3.6018
G01 X20.6000 Y3.5999
G01 X36.6000 Y3.5999
G01 X36.6417 Y3.6020
G01 X36.6781 Y3.6075
G01 X36.7162 Y3.6171
G01 X36.7531 Y3.6303
G01 X36.7842 Y3.6449
G01 X36.7929 Y3.6495
G01 X36.8182 Y3.6647
G01 X36.8263 Y3.6701
G01 X36.8539 Y3.6907
G01 X36.8812 Y3.7153
G01 X38.3962 Y5.2303
G01 X38.4226 Y5.2594
G01 X38.4460 Y5.2909
G01 X38.4637 Y5.3204
G01 X38.4684 Y5.3290
G01 X38.4829 Y5.3601
G01 X38.4946 Y5.3924
G01 X38.4975 Y5.4018
G01 X38.5057 Y5.4352
G01 X38.5109 Y5.4692
G01 X38.5118 Y5.4789
G01 X38.5134 Y5.5133
G01 X38.5134 Y5.9044
G01 X39.1982 Y5.9045
G01 X39.2104 Y5.9059
G01 X39.2199 Y5.9080
G01 X39.2315 Y5.9120
G01 X39.2404 Y5.9162
G01 X39.2508 Y5.9226
G01 X39.2604 Y5.9303
G01 X39.2690 Y5.9391
G01 X39.2750 Y5.9468
G01 X39.2790 Y5.9530
G01 X39.2826 Y5.9594
G01 X39.2856 Y5.9661
G01 X39.2882 Y5.9730
G01 X39.2903 Y5.9801
G01 X39.2918 Y5.9873
G01 X39.2928 Y5.9946
G01 X39.2932 Y6.0019
G01 X39.2932 Y7.1268
G01 X39.2928 Y7.1342
G01 X39.2918 Y7.1415
G01 X39.2889 Y7.1534
G01 X39.2847 Y7.1649
G01 X39.2790 Y7.1758
G01 X39.2721 Y7.1859
G01 X39.2640 Y7.1951
G01 X39.2548 Y7.2032
G01 X39.2488 Y7.2075
G01 X39.2425 Y7.2114
G01 X39.2315 Y7.2168
G01 X39.2199 Y7.2208
G01 X39.2128 Y7.2225
G01 X39.2055 Y7.2236
G01 X39.1933 Y7.2244
G01 X37.0333 Y7.2244
G01 X37.0259 Y7.2241
G01 X37.0186 Y7.2233
G01 X37.0090 Y7.2214
G01 X37.0019 Y7.2193
G01 X36.9927 Y7.2158
G01 X36.9840 Y7.2114
G01 X36.9777 Y7.2075
G01 X36.9698 Y7.2017
G01 X36.9625 Y7.1951
G01 X36.9560 Y7.1878
G01 X36.9501 Y7.1799
G01 X36.9462 Y7.1737
G01 X36.9418 Y7.1649
G01 X36.9383 Y7.1558
G01 X36.9363 Y7.1487
G01 X36.9347 Y7.1415
G01 X36.9335 Y7.1317
G01 X36.9333 Y7.1244
G01 X36.9333 Y6.0044
G01 X36.9337 Y5.9946
G01 X36.9357 Y5.9825
G01 X36.9383 Y5.9730
G01 X36.9418 Y5.9639
G01 X36.9475 Y5.9530
G01 X36.9515 Y5.9468
G01 X36.9560 Y5.9409
G01 X36.9608 Y5.9354
G01 X36.9661 Y5.9303
G01 X36.9757 Y5.9226
G01 X36.9818 Y5.9186
G01 X36.9883 Y5.9151
G01 X36.9996 Y5.9102
G01 X37.0066 Y5.9080
G01 X37.0137 Y5.9063
G01 X37.0259 Y5.9047
G01 X37.0333 Y5.9044
G01 X37.7131 Y5.9044
G01 X37.7131 Y5.6790
G01 X36.4343 Y4.4001
G01 X20.7657 Y4.4002
G01 X12.9829 Y12.1829
G01 X12.9539 Y12.2093
G01 X12.9263 Y12.2299
G01 X12.9182 Y12.2353
G01 X12.8865 Y12.2540
G01 X12.8576 Y12.2677
G01 X12.8486 Y12.2715
G01 X12.8162 Y12.2829
G01 X12.7829 Y12.2914
G01 X12.7732 Y12.2933
G01 X12.7392 Y12.2982
G01 X12.7000 Y12.3001
G01 X5.4657 Y12.3002
G01 X3.4001 Y14.3657
G01 X3.4002 Y31.0343
G01 X3.8657 Y31.4999
G01 X4.4500 Y31.4998
G01 X4.4500 Y31.0500
G01 X4.4508 Y31.0378
G01 X4.4519 Y31.0305
G01 X4.4536 Y31.0233
G01 X4.4558 Y31.0163
G01 X4.4586 Y31.0095
G01 X4.4618 Y31.0029
G01 X4.4655 Y30.9965
G01 X4.4697 Y30.9904
G01 X4.4743 Y30.9847
G01 X4.4793 Y30.9793
G01 X4.4847 Y30.9743
G01 X4.4904 Y30.9697
G01 X4.4965 Y30.9655
G01 X4.5029 Y30.9618
G01 X4.5095 Y30.9586
G01 X4.5163 Y30.9558
G01 X4.5233 Y30.9536
G01 X4.5305 Y30.9519
G01 X4.5378 Y30.9508
G01 X4.5500 Y30.9500
G01 X6.2500 Y30.9500
G01 X6.2574 Y30.9503
G01 X6.2647 Y30.9511
G01 X6.2767 Y30.9536
G01 X6.2837 Y30.9558
G01 X6.2905 Y30.9586
G01 X6.3014 Y30.9642
G01 X6.3115 Y30.9712
G01 X6.3207 Y30.9793
G01 X6.3257 Y30.9847
G01 X6.3303 Y30.9904
G01 X6.3370 Y31.0007
G01 X6.3424 Y31.0117
G01 X6.3464 Y31.0233
G01 X6.3489 Y31.0353
G01 X6.3500 Y31.0475
G01 X6.3500 Y32.7500
G01 X6.3495 Y32.7598
G01 X6.3481 Y32.7695
G01 X6.3457 Y32.7790
G01 X6.3424 Y32.7883
G01 X6.3393 Y32.7950
G01 X6.3358 Y32.8014
G01 X6.3318 Y32.8076
G01 X6.3273 Y32.8134
G01 X6.3224 Y32.8190
G01 X6.3172 Y32.8241
G01 X6.3076 Y32.8318
G01 X6.3014 Y32.8358
G01 X6.2950 Y32.8393
G01 X6.2883 Y32.8424
G01 X6.2814 Y32.8450
G01 X6.2743 Y32.8470
G01 X6.2671 Y32.8485
G01 X6.2598 Y32.8495
G01 X6.2525 Y32.8500
G01 X4.5500 Y32.8500
G01 X4.5402 Y32.8495
G01 X4.5305 Y32.8481
G01 X4.5210 Y32.8457
G01 X4.5117 Y32.8424
G01 X4.5007 Y32.8370
G01 X4.4944 Y32.8331
G01 X4.4885 Y32.8288
G01 X4.4793 Y32.8207
G01 X4.4712 Y32.8115
G01 X4.4642 Y32.8014
G01 X4.4607 Y32.7950
G01 X4.4576 Y32.7883
G01 X4.4550 Y32.7814
G01 X4.4530 Y32.7743
G01 X4.4508 Y32.7622
G01 X4.4500 Y32.7500
G01 X4.4500 Y32.3001
G01 X3.7000 Y32.3001
G01 X3.6657 Y32.2986
G01 X3.6559 Y32.2976
G01 X3.6219 Y32.2925
G01 X3.5838 Y32.2829
G01 X3.5469 Y32.2697
G01 X3.5092 Y32.2517
G01 X3.4777 Y32.2327
G01 X3.4500 Y32.2123
G01 X3.4424 Y32.2061
G01 X3.4188 Y32.1847
G01 X2.7171 Y31.4829
G01 X2.6939 Y31.4576
G01 X2.6877 Y31.4500
G01 X2.6701 Y31.4263
G01 X2.6647 Y31.4182
G01 X2.6471 Y31.3886
G01 X2.6303 Y31.3531
G01 X2.6171 Y31.3162
G01 X2.6086 Y31.2829
G01 X2.6067 Y31.2732
G01 X2.6024 Y31.2441
G01 X2.6014 Y31.2343
G00 Z6.0000
G00 X43.4775 Y5.7186
G01 F60.00
G01 Z-0.115
G01 F120.00
G01 X43.4086 Y5.8107
G01 X43.3677 Y5.9202
G01 X43.3633 Y5.9619
G01 X43.3633 Y6.2144
G01 X43.6633 Y6.2144
G01 X43.6633 Y6.0019
G01 X43.6643 Y5.9897
G01 X43.6663 Y5.9801
G01 X43.6700 Y5.9684
G01 X43.6729 Y5.9616
G01 X43.6762 Y5.9551
G01 X43.6829 Y5.9448
G01 X43.6875 Y5.9391
G01 X43.6925 Y5.9337
G01 X43.6979 Y5.9287
G01 X43.7037 Y5.9241
G01 X43.7140 Y5.9174
G01 X43.7250 Y5.9120
G01 X43.7366 Y5.9080
G01 X43.7437 Y5.9063
G01 X43.7510 Y5.9051
G01 X43.7633 Y5.9044
G01 X44.4933 Y5.9044
G01 X44.4933 Y5.6044
G01 X43.7208 Y5.6044
G01 X43.6791 Y5.6089
G01 X43.5696 Y5.6497
G01 X43.4775 Y5.7186
G00 Z6.0000
G00 X45.9306 Y7.2241
G01 F60.00
G01 Z-0.115
G01 F120.00
G01 X45.9233 Y7.2244
G01 X45.1933 Y7.2244
G01 X45.1933 Y7.5244
G01 X45.9657 Y7.5244
G01 X46.0075 Y7.5199
G01 X46.1169 Y7.4791
G01 X46.2090 Y7.4101
G01 X46.2779 Y7.3181
G01 X46.3188 Y7.2086
G01 X46.3233 Y7.1669
G01 X46.3233 Y6.9144
G01 X46.0233 Y6.9144
G01 X46.0232 Y7.1268
G01 X46.0228 Y7.1342
G01 X46.0218 Y7.1415
G01 X46.0189 Y7.1534
G01 X46.0166 Y7.1604
G01 X46.0137 Y7.1671
G01 X46.0103 Y7.1737
G01 X46.0064 Y7.1799
G01 X46.0021 Y7.1859
G01 X45.9974 Y7.1915
G01 X45.9922 Y7.1968
G01 X45.9867 Y7.2017
G01 X45.9808 Y7.2061
G01 X45.9747 Y7.2102
G01 X45.9682 Y7.2137
G01 X45.9615 Y7.2168
G01 X45.9546 Y7.2193
G01 X45.9476 Y7.2214
G01 X45.9404 Y7.2229
G01 X45.9306 Y7.2241
G00 Z6.0000
G00 X63.0507 Y7.1257
G01 F60.00
G01 Z-0.115
G01 F120.00
G01 X61.7982 Y8.3781
G01 X61.7719 Y8.4108
G01 X61.7233 Y8.5173
G01 X61.7069 Y8.6312
G01 X61.7233 Y8.7452
G01 X61.7719 Y8.8516
G01 X61.7982 Y8.8844
G01 X63.2726 Y10.3587
G01 X63.3053 Y10.3851
G01 X63.4117 Y10.4337
G01 X63.5257 Y10.4501
G01 X63.6397 Y10.4337
G01 X63.7461 Y10.3851
G01 X63.7788 Y10.3587
G01 X65.2532 Y8.8844
G01 X65.2796 Y8.8516
G01 X65.3282 Y8.7452
G01 X65.3445 Y8.6312
G01 X65.3282 Y8.5172
G01 X65.2796 Y8.4108
G01 X65.2532 Y8.3781
G01 X63.7788 Y6.9038
G01 X63.7461 Y6.8774
G01 X63.6397 Y6.8288
G01 X63.5257 Y6.8124
G01 X63.4117 Y6.8288
G01 X63.3053 Y6.8774
G01 X63.2726 Y6.9038
G01 X63.0507 Y7.1257
G00 Z6.0000
G00 X65.9523 Y4.2326
G01 F60.00
G01 Z-0.115
G01 F120.00
G01 X65.8253 Y4.4269
G01 X65.7321 Y4.6394
G01 X65.6751 Y4.8644
G01 X65.6559 Y5.0957
G01 X65.6751 Y5.3270
G01 X65.7321 Y5.5520
G01 X65.8253 Y5.7646
G01 X65.9523 Y5.9589
G01 X66.1095 Y6.1296
G01 X66.2926 Y6.2722
G01 X66.4967 Y6.3826
G01 X66.7163 Y6.4580
G01 X66.9452 Y6.4962
G01 X67.1773 Y6.4962
G01 X67.4062 Y6.4580
G01 X67.6257 Y6.3826
G01 X67.8299 Y6.2722
G01 X68.0130 Y6.1296
G01 X68.1702 Y5.9589
G01 X68.2972 Y5.7646
G01 X68.3904 Y5.5520
G01 X68.4474 Y5.3270
G01 X68.4665 Y5.0957
G01 X68.4474 Y4.8644
G01 X68.3904 Y4.6394
G01 X68.2972 Y4.4269
G01 X68.1702 Y4.2326
G01 X68.0130 Y4.0618
G01 X67.8299 Y3.9192
G01 X67.6257 Y3.8088
G01 X67.4062 Y3.7334
G01 X67.1773 Y3.6952
G01 X66.9452 Y3.6952
G01 X66.7163 Y3.7334
G01 X66.4967 Y3.8088
G01 X66.2926 Y3.9192
G01 X66.1095 Y4.0618
G01 X65.9523 Y4.2326
G00 Z6.0000
G00 X74.4607 Y15.4964
G01 F60.00
G01 Z-0.115
G01 F120.00
G01 X74.7676 Y15.7650
G01 X75.3527 Y15.1703
G01 X77.2998 Y17.2037
G01 X75.5971 Y18.9405
G01 X73.5850 Y16.9336
G01 X73.9281 Y16.5087
G01 X73.7028 Y16.2937
G00 Z6.0000
G00 X75.8244 Y15.2834
G01 F60.00
G01 Z-0.115
G01 F120.00
G01 X75.8294 Y15.2780
G01 X77.2453 Y13.8621
G01 X77.2509 Y13.8572
G01 X77.2567 Y13.8528
G01 X77.2629 Y13.8488
G01 X77.2715 Y13.8441
G01 X77.2783 Y13.8412
G01 X77.2853 Y13.8388
G01 X77.2924 Y13.8370
G01 X77.3020 Y13.8353
G01 X77.3094 Y13.8347
G01 X77.3167 Y13.8346
G01 X77.3241 Y13.8350
G01 X77.3314 Y13.8360
G01 X77.3410 Y13.8382
G01 X77.3480 Y13.8404
G01 X77.3548 Y13.8431
G01 X77.3614 Y13.8464
G01 X77.3678 Y13.8501
G01 X77.3739 Y13.8542
G01 X77.3796 Y13.8588
G01 X77.3850 Y13.8638
G01 X78.7992 Y15.2780
G01 X78.8058 Y15.2853
G01 X78.8103 Y15.2912
G01 X78.8155 Y15.2995
G01 X78.8189 Y15.3060
G01 X78.8218 Y15.3128
G01 X78.8242 Y15.3197
G01 X78.8261 Y15.3268
G01 X78.8274 Y15.3341
G01 X78.8284 Y15.3439
G01 X78.8285 Y15.3512
G01 X78.8280 Y15.3586
G01 X78.8270 Y15.3659
G01 X78.8249 Y15.3754
G01 X78.8227 Y15.3824
G01 X78.8199 Y15.3893
G01 X78.8155 Y15.3980
G01 X78.8117 Y15.4043
G01 X78.8073 Y15.4103
G01 X78.7992 Y15.4195
G01 X78.3751 Y15.8436
G01 X79.7847 Y17.2533
G01 X79.8093 Y17.2806
G01 X79.8299 Y17.3081
G01 X79.8353 Y17.3163
G01 X79.8529 Y17.3458
G01 X79.8677 Y17.3768
G01 X79.8715 Y17.3859
G01 X79.8829 Y17.4183
G01 X79.8920 Y17.4540
G01 X79.8982 Y17.4952
G01 X79.9001 Y17.5345
G01 X79.9001 Y24.7100
G01 X79.8980 Y24.7517
G01 X79.8925 Y24.7881
G01 X79.8842 Y24.8214
G01 X79.8814 Y24.8308
G01 X79.8715 Y24.8586
G01 X79.8677 Y24.8676
G01 X79.8529 Y24.8986
G01 X79.8327 Y24.9323
G01 X79.8093 Y24.9639
G01 X79.7863 Y24.9894
G01 X78.6700 Y26.1059
G01 X78.6699 Y27.3449
G01 X78.6692 Y27.3522
G01 X78.6681 Y27.3595
G01 X78.6657 Y27.3690
G01 X78.6633 Y27.3760
G01 X78.6604 Y27.3828
G01 X78.6570 Y27.3893
G01 X78.6531 Y27.3956
G01 X78.6473 Y27.4034
G01 X78.6424 Y27.4090
G01 X78.6353 Y27.4157
G01 X78.6296 Y27.4203
G01 X78.6214 Y27.4258
G01 X78.6150 Y27.4293
G01 X78.6083 Y27.4324
G01 X78.5990 Y27.4357
G01 X78.5919 Y27.4376
G01 X78.5822 Y27.4392
G01 X78.5700 Y27.4400
G01 X76.8675 Y27.4400
G01 X76.8578 Y27.4392
G01 X76.8481 Y27.4376
G01 X76.8410 Y27.4357
G01 X76.8317 Y27.4324
G01 X76.8229 Y27.4282
G01 X76.8144 Y27.4231
G01 X76.8066 Y27.4173
G01 X76.7993 Y27.4107
G01 X76.7927 Y27.4034
G01 X76.7869 Y27.3956
G01 X76.7818 Y27.3871
G01 X76.7776 Y27.3783
G01 X76.7750 Y27.3714
G01 X76.7724 Y27.3619
G01 X76.7708 Y27.3522
G01 X76.7700 Y27.3425
G01 X76.7701 Y25.6351
G01 X76.7708 Y25.6278
G01 X76.7724 Y25.6181
G01 X76.7743 Y25.6110
G01 X76.7776 Y25.6017
G01 X76.7818 Y25.5929
G01 X76.7869 Y25.5844
G01 X76.7927 Y25.5766
G01 X76.7976 Y25.5710
G01 X76.8047 Y25.5643
G01 X76.8124 Y25.5582
G01 X76.8207 Y25.5530
G01 X76.8272 Y25.5496
G01 X76.8340 Y25.5467
G01 X76.8433 Y25.5436
G01 X76.8529 Y25.5415
G01 X76.8626 Y25.5403
G01 X76.8700 Y25.5400
G01 X78.1041 Y25.5400
G01 X79.0999 Y24.5443
G01 X79.0998 Y17.7002
G01 X77.8092 Y16.4095
G01 X77.3850 Y16.8337
G01 X77.3758 Y16.8418
G01 X77.3698 Y16.8461
G01 X77.3614 Y16.8512
G01 X77.3548 Y16.8544
G01 X77.3457 Y16.8579
G01 X77.3386 Y16.8600
G01 X77.3314 Y16.8615
G01 X77.3216 Y16.8627
G01 X77.3143 Y16.8630
G01 X77.3069 Y16.8627
G01 X77.2996 Y16.8619
G01 X77.2900 Y16.8600
G01 X77.2829 Y16.8579
G01 X77.2760 Y16.8554
G01 X77.2672 Y16.8512
G01 X77.2608 Y16.8475
G01 X77.2547 Y16.8433
G01 X77.2490 Y16.8387
G01 X77.2436 Y16.8337
G01 X75.8260 Y15.4159
G01 X75.8212 Y15.4103
G01 X75.8156 Y15.4023
G01 X75.8108 Y15.3937
G01 X75.8068 Y15.3847
G01 X75.8037 Y15.3754
G01 X75.8015 Y15.3659
G01 X75.8006 Y15.3586
G01 X75.8001 Y15.3488
G01 X75.8003 Y15.3414
G01 X75.8015 Y15.3317
G01 X75.8037 Y15.3221
G01 X75.8059 Y15.3151
G01 X75.8097 Y15.3060
G01 X75.8131 Y15.2995
G01 X75.8183 Y15.2912
G01 X75.8244 Y15.2834
G00 Z6.0000
G00 X72.2872 Y18.8208
G01 F60.00
G01 Z-0.115
G01 F120.00
G01 X72.2938 Y18.8136
G01 X73.7098 Y17.3977
G01 X73.7172 Y17.3912
G01 X73.7253 Y17.3856
G01 X73.7316 Y17.3819
G01 X73.7405 Y17.3777
G01 X73.7497 Y17.3744
G01 X73.7592 Y17.3720
G01 X73.7690 Y17.3706
G01 X73.7788 Y17.3701
G01 X73.7886 Y17.3706
G01 X73.7983 Y17.3720
G01 X73.8078 Y17.3744
G01 X73.8170 Y17.3777
G01 X73.8259 Y17.3819
G01 X73.8343 Y17.3869
G01 X73.8422 Y17.3928
G01 X73.8495 Y17.3994
G01 X75.2637 Y18.8136
G01 X75.2687 Y18.8190
G01 X75.2733 Y18.8247
G01 X75.2775 Y18.8308
G01 X75.2812 Y18.8371
G01 X75.2844 Y18.8438
G01 X75.2871 Y18.8506
G01 X75.2893 Y18.8576
G01 X75.2910 Y18.8648
G01 X75.2922 Y18.8720
G01 X75.2929 Y18.8794
G01 X75.2929 Y18.8867
G01 X75.2925 Y18.8941
G01 X75.2915 Y18.9014
G01 X75.2900 Y18.9086
G01 X75.2879 Y18.9157
G01 X75.2854 Y18.9226
G01 X75.2823 Y18.9293
G01 X75.2787 Y18.9357
G01 X75.2747 Y18.9419
G01 X75.2703 Y18.9477
G01 X75.2637 Y18.9550
G01 X74.8395 Y19.3792
G01 X75.5829 Y20.1226
G01 X75.6077 Y20.1498
G01 X75.6299 Y20.1792
G01 X75.6353 Y20.1874
G01 X75.6529 Y20.2169
G01 X75.6697 Y20.2524
G01 X75.6814 Y20.2847
G01 X75.6842 Y20.2941
G01 X75.6925 Y20.3275
G01 X75.6982 Y20.3663
G01 X75.7001 Y20.4055
G01 X75.7002 Y27.9343
G01 X76.3957 Y28.6299
G01 X76.8595 Y28.6298
G01 X76.8834 Y28.5800
G01 X76.9288 Y28.5043
G01 X76.9329 Y28.4982
G01 X76.9841 Y28.4292
G01 X76.9888 Y28.4236
G01 X77.0482 Y28.3582
G01 X77.1136 Y28.2988
G01 X77.1192 Y28.2941
G01 X77.1882 Y28.2429
G01 X77.1964 Y28.2375
G01 X77.2722 Y28.1922
G01 X77.3520 Y28.1543
G01 X77.3610 Y28.1505
G01 X77.4442 Y28.1209
G01 X77.5299 Y28.0993
G01 X77.5371 Y28.0978
G01 X77.6269 Y28.0846
G01 X77.7151 Y28.0801
G01 X77.7249 Y28.0801
G01 X77.8082 Y28.0842
G01 X77.8180 Y28.0852
G01 X77.9053 Y28.0983
G01 X77.9910 Y28.1196
G01 X78.0004 Y28.1224
G01 X78.0835 Y28.1523
G01 X78.1678 Y28.1922
G01 X78.2478 Y28.2401
G01 X78.3208 Y28.2941
G01 X78.3264 Y28.2988
G01 X78.3918 Y28.3582
G01 X78.4512 Y28.4236
G01 X78.4574 Y28.4312
G01 X78.5099 Y28.5022
G01 X78.5554 Y28.5779
G01 X78.5600 Y28.5866
G01 X78.5977 Y28.6665
G01 X78.6276 Y28.7496
G01 X78.6304 Y28.7590
G01 X78.6517 Y28.8447
G01 X78.6648 Y28.9320
G01 X78.6658 Y28.9418
G01 X78.6700 Y29.0300
G01 X78.6654 Y29.1231
G01 X78.6517 Y29.2153
G01 X78.6304 Y29.3010
G01 X78.6276 Y29.3104
G01 X78.5977 Y29.3935
G01 X78.5600 Y29.4734
G01 X78.5554 Y29.4821
G01 X78.5099 Y29.5578
G01 X78.4574 Y29.6288
G01 X78.4512 Y29.6364
G01 X78.3918 Y29.7018
G01 X78.3264 Y29.7612
G01 X78.3188 Y29.7674
G01 X78.2478 Y29.8199
G01 X78.1678 Y29.8678
G01 X78.0835 Y29.9077
G01 X77.9958 Y29.9391
G01 X77.9053 Y29.9617
G01 X77.8180 Y29.9748
G01 X77.8082 Y29.9758
G01 X77.7249 Y29.9799
G01 X77.7151 Y29.9799
G01 X77.6269 Y29.9754
G01 X77.5395 Y29.9626
G01 X77.5323 Y29.9612
G01 X77.4490 Y29.9404
G01 X77.4396 Y29.9376
G01 X77.3565 Y29.9077
G01 X77.2766 Y29.8700
G01 X77.2679 Y29.8654
G01 X77.1922 Y29.8199
G01 X77.1192 Y29.7659
G01 X77.1136 Y29.7612
G01 X77.0482 Y29.7018
G01 X76.9888 Y29.6364
G01 X76.9841 Y29.6308
G01 X76.9329 Y29.5618
G01 X76.9288 Y29.5557
G01 X76.8834 Y29.4800
G01 X76.8595 Y29.4301
G01 X76.2300 Y29.4301
G01 X76.1957 Y29.4286
G01 X76.1859 Y29.4276
G01 X76.1519 Y29.4225
G01 X76.1138 Y29.4129
G01 X76.0769 Y29.3997
G01 X76.0435 Y29.3840
G01 X76.0118 Y29.3653
G01 X76.0037 Y29.3599
G01 X75.9761 Y29.3393
G01 X75.9471 Y29.3129
G01 X75.0171 Y28.3829
G01 X74.9939 Y28.3576
G01 X74.9877 Y28.3500
G01 X74.9673 Y28.3223
G01 X74.9471 Y28.2886
G01 X74.9323 Y28.2576
G01 X74.9285 Y28.2486
G01 X74.9171 Y28.2162
G01 X74.9086 Y28.1829
G01 X74.9067 Y28.1732
G01 X74.9018 Y28.1392
G01 X74.8999 Y28.1000
G01 X74.8998 Y20.5713
G01 X74.2736 Y19.9451
G01 X73.8495 Y20.3692
G01 X73.8403 Y20.3773
G01 X73.8343 Y20.3816
G01 X73.8280 Y20.3855
G01 X73.8215 Y20.3889
G01 X73.8147 Y20.3918
G01 X73.8078 Y20.3942
G01 X73.8007 Y20.3961
G01 X73.7910 Y20.3978
G01 X73.7837 Y20.3984
G01 X73.7763 Y20.3985
G01 X73.7665 Y20.3978
G01 X73.7592 Y20.3966
G01 X73.7521 Y20.3949
G01 X73.7428 Y20.3918
G01 X73.7360 Y20.3889
G01 X73.7295 Y20.3855
G01 X73.7232 Y20.3816
G01 X73.7153 Y20.3758
G01 X73.7080 Y20.3692
G01 X72.2904 Y18.9514
G01 X72.2857 Y18.9458
G01 X72.2801 Y18.9378
G01 X72.2752 Y18.9293
G01 X72.2722 Y18.9226
G01 X72.2689 Y18.9133
G01 X72.2670 Y18.9062
G01 X72.2653 Y18.8965
G01 X72.2646 Y18.8867
G01 X72.2648 Y18.8769
G01 X72.2656 Y18.8696
G01 X72.2675 Y18.8600
G01 X72.2704 Y18.8506
G01 X72.2741 Y18.8415
G01 X72.2775 Y18.8350
G01 X72.2814 Y18.8287
G01 X72.2872 Y18.8208
G00 Z6.0000
G00 X78.6812 Y32.3765
G01 F60.00
G01 Z-0.115
G01 F120.00
G01 X78.8067 Y32.1974
G01 X78.8991 Y31.9992
G01 X78.9203 Y31.9200
G01 X78.6027 Y31.9200
G01 X78.5986 Y31.9313
G01 X78.5957 Y31.9380
G01 X78.5578 Y32.0178
G01 X78.5099 Y32.0978
G01 X78.4544 Y32.1727
G01 X78.3918 Y32.2418
G01 X78.3227 Y32.3044
G01 X78.2478 Y32.3599
G01 X78.1678 Y32.4078
G01 X78.0880 Y32.4457
G01 X78.0813 Y32.4486
G01 X78.0700 Y32.4527
G01 X78.0700 Y32.7703
G01 X78.1492 Y32.7491
G01 X78.3474 Y32.6567
G01 X78.5266 Y32.5312
G01 X78.6812 Y32.3765
G00 Z6.0000
M05
G00 Z6.0000
G00 Z15.00
M2

