(G-CODE GENERATED BY FLATCAM v2024.4 - www.flatcam.org - Version Date: 2024/04/15)

(Name: eHSI_pcb-Edge_Cuts.gbr_cutout_1_cnc)
(Type: G-code from Geometry)
(Units: MM)

(Created on Tuesday, 05 May 2026 at 17:22)



G01 F120.00

M5
G00 Z15.0000
G00 X0.0000 Y0.0000
T1
M6    
(MSG, Change to Tool Dia = 2.0000)
M0
G00 Z15.0000

M03
G01 F120.00
G00 X0.3475 Y15.4810
G01 F60.00
G01 Z-0.7000
G01 F120.00
G01 X0.3475 Y13.6338
G01 X0.3493 Y13.5700
G01 X0.3599 Y13.4626
G01 X0.3614 Y13.4528
G01 X0.3824 Y13.3470
G01 X0.3848 Y13.3374
G01 X0.4161 Y13.2341
G01 X0.4195 Y13.2249
G01 X0.4608 Y13.1252
G01 X0.4650 Y13.1163
G01 X0.5159 Y13.0211
G01 X0.5209 Y13.0127
G01 X0.5809 Y12.9229
G01 X0.5867 Y12.9150
G01 X0.6552 Y12.8316
G01 X0.6990 Y12.7852
G01 X12.6389 Y0.8453
G01 X12.6853 Y0.8015
G01 X12.7687 Y0.7330
G01 X12.7766 Y0.7271
G01 X12.8664 Y0.6672
G01 X12.8748 Y0.6621
G01 X12.9700 Y0.6112
G01 X12.9789 Y0.6070
G01 X13.0786 Y0.5657
G01 X13.0879 Y0.5624
G01 X13.1912 Y0.5311
G01 X13.2007 Y0.5287
G01 X13.3066 Y0.5076
G01 X13.3163 Y0.5062
G01 X13.4237 Y0.4956
G01 X13.4875 Y0.4938
G01 X39.0876 Y0.4938
G00 X39.0876 Y0.4938
G01 F60.00
G01 Z-1.4000
G01 F120.00
G01 X13.4875 Y0.4938
G01 X13.4237 Y0.4956
G01 X13.3163 Y0.5062
G01 X13.3066 Y0.5076
G01 X13.2007 Y0.5287
G01 X13.1912 Y0.5311
G01 X13.0879 Y0.5624
G01 X13.0786 Y0.5657
G01 X12.9789 Y0.6070
G01 X12.9700 Y0.6112
G01 X12.8748 Y0.6621
G01 X12.8664 Y0.6672
G01 X12.7766 Y0.7271
G01 X12.7687 Y0.7330
G01 X12.6853 Y0.8015
G01 X12.6389 Y0.8453
G01 X0.6990 Y12.7852
G01 X0.6552 Y12.8316
G01 X0.5867 Y12.9150
G01 X0.5809 Y12.9229
G01 X0.5209 Y13.0127
G01 X0.5159 Y13.0211
G01 X0.4650 Y13.1163
G01 X0.4608 Y13.1252
G01 X0.4195 Y13.2249
G01 X0.4161 Y13.2341
G01 X0.3848 Y13.3374
G01 X0.3824 Y13.3470
G01 X0.3614 Y13.4528
G01 X0.3599 Y13.4626
G01 X0.3493 Y13.5700
G01 X0.3475 Y13.6338
G01 X0.3475 Y15.4810
G00 X0.3475 Y15.4810
G01 F60.00
G01 Z-1.9000
G01 F120.00
G01 X0.3475 Y13.6338
G01 X0.3493 Y13.5700
G01 X0.3599 Y13.4626
G01 X0.3614 Y13.4528
G01 X0.3824 Y13.3470
G01 X0.3848 Y13.3374
G01 X0.4161 Y13.2341
G01 X0.4195 Y13.2249
G01 X0.4608 Y13.1252
G01 X0.4650 Y13.1163
G01 X0.5159 Y13.0211
G01 X0.5209 Y13.0127
G01 X0.5809 Y12.9229
G01 X0.5867 Y12.9150
G01 X0.6552 Y12.8316
G01 X0.6990 Y12.7852
G01 X12.6389 Y0.8453
G01 X12.6853 Y0.8015
G01 X12.7687 Y0.7330
G01 X12.7766 Y0.7271
G01 X12.8664 Y0.6672
G01 X12.8748 Y0.6621
G01 X12.9700 Y0.6112
G01 X12.9789 Y0.6070
G01 X13.0786 Y0.5657
G01 X13.0879 Y0.5624
G01 X13.1912 Y0.5311
G01 X13.2007 Y0.5287
G01 X13.3066 Y0.5076
G01 X13.3163 Y0.5062
G01 X13.4237 Y0.4956
G01 X13.4875 Y0.4938
G01 X39.0876 Y0.4938
G00 Z2.0000
G00 X0.3475 Y20.4810
G01 F60.00
G01 Z-0.7000
G01 F120.00
G01 X0.3475 Y34.0681
G01 X0.3493 Y34.1319
G01 X0.3599 Y34.2393
G01 X0.3614 Y34.2490
G01 X0.3824 Y34.3549
G01 X0.3848 Y34.3644
G01 X0.4161 Y34.4677
G01 X0.4195 Y34.4769
G01 X0.4608 Y34.5767
G01 X0.4650 Y34.5856
G01 X0.5159 Y34.6808
G01 X0.5209 Y34.6892
G01 X0.5809 Y34.7789
G01 X0.5867 Y34.7868
G01 X0.6552 Y34.8703
G01 X0.6618 Y34.8775
G01 X0.7381 Y34.9539
G01 X0.7454 Y34.9605
G01 X0.8288 Y35.0289
G01 X0.8367 Y35.0348
G01 X0.9265 Y35.0948
G01 X0.9349 Y35.0998
G01 X1.0301 Y35.1507
G01 X1.0390 Y35.1549
G01 X1.1387 Y35.1962
G01 X1.1480 Y35.1995
G01 X1.2513 Y35.2309
G01 X1.2608 Y35.2332
G01 X1.3667 Y35.2543
G01 X1.3764 Y35.2557
G01 X1.4838 Y35.2663
G01 X1.5476 Y35.2681
G01 X8.9226 Y35.2681
G01 X8.9864 Y35.2663
G01 X9.0938 Y35.2557
G01 X9.1035 Y35.2543
G01 X9.2094 Y35.2332
G01 X9.2189 Y35.2309
G01 X9.3222 Y35.1995
G01 X9.3315 Y35.1962
G01 X9.4312 Y35.1549
G01 X9.4401 Y35.1507
G01 X9.5353 Y35.0998
G01 X9.5437 Y35.0948
G01 X9.6334 Y35.0348
G01 X9.6413 Y35.0289
G01 X9.7248 Y34.9605
G01 X9.7321 Y34.9539
G01 X9.8084 Y34.8775
G01 X9.8150 Y34.8703
G01 X9.8835 Y34.7868
G01 X9.8893 Y34.7789
G01 X9.9493 Y34.6892
G01 X9.9543 Y34.6808
G01 X10.0052 Y34.5856
G01 X10.0094 Y34.5767
G01 X10.0507 Y34.4769
G01 X10.0540 Y34.4677
G01 X10.0854 Y34.3644
G01 X10.0878 Y34.3549
G01 X10.1088 Y34.2490
G01 X10.1103 Y34.2393
G01 X10.1208 Y34.1319
G01 X10.1226 Y34.0681
G01 X10.1226 Y25.4785
G01 X15.1202 Y20.4810
G00 X15.1202 Y20.4810
G01 F60.00
G01 Z-1.4000
G01 F120.00
G01 X10.1226 Y25.4785
G01 X10.1226 Y34.0681
G01 X10.1208 Y34.1319
G01 X10.1103 Y34.2393
G01 X10.1088 Y34.2490
G01 X10.0878 Y34.3549
G01 X10.0854 Y34.3644
G01 X10.0540 Y34.4677
G01 X10.0507 Y34.4769
G01 X10.0094 Y34.5767
G01 X10.0052 Y34.5856
G01 X9.9543 Y34.6808
G01 X9.9493 Y34.6892
G01 X9.8893 Y34.7789
G01 X9.8835 Y34.7868
G01 X9.8150 Y34.8703
G01 X9.8084 Y34.8775
G01 X9.7321 Y34.9539
G01 X9.7248 Y34.9605
G01 X9.6413 Y35.0289
G01 X9.6334 Y35.0348
G01 X9.5437 Y35.0948
G01 X9.5353 Y35.0998
G01 X9.4401 Y35.1507
G01 X9.4312 Y35.1549
G01 X9.3315 Y35.1962
G01 X9.3222 Y35.1995
G01 X9.2189 Y35.2309
G01 X9.2094 Y35.2332
G01 X9.1035 Y35.2543
G01 X9.0938 Y35.2557
G01 X8.9864 Y35.2663
G01 X8.9226 Y35.2681
G01 X1.5476 Y35.2681
G01 X1.4838 Y35.2663
G01 X1.3764 Y35.2557
G01 X1.3667 Y35.2543
G01 X1.2608 Y35.2332
G01 X1.2513 Y35.2309
G01 X1.1480 Y35.1995
G01 X1.1387 Y35.1962
G01 X1.0390 Y35.1549
G01 X1.0301 Y35.1507
G01 X0.9349 Y35.0998
G01 X0.9265 Y35.0948
G01 X0.8367 Y35.0348
G01 X0.8288 Y35.0289
G01 X0.7454 Y34.9605
G01 X0.7381 Y34.9539
G01 X0.6618 Y34.8775
G01 X0.6552 Y34.8703
G01 X0.5867 Y34.7868
G01 X0.5809 Y34.7789
G01 X0.5209 Y34.6892
G01 X0.5159 Y34.6808
G01 X0.4650 Y34.5856
G01 X0.4608 Y34.5767
G01 X0.4195 Y34.4769
G01 X0.4161 Y34.4677
G01 X0.3848 Y34.3644
G01 X0.3824 Y34.3549
G01 X0.3614 Y34.2490
G01 X0.3599 Y34.2393
G01 X0.3493 Y34.1319
G01 X0.3475 Y34.0681
G01 X0.3475 Y20.4810
G00 X0.3475 Y20.4810
G01 F60.00
G01 Z-1.9000
G01 F120.00
G01 X0.3475 Y34.0681
G01 X0.3493 Y34.1319
G01 X0.3599 Y34.2393
G01 X0.3614 Y34.2490
G01 X0.3824 Y34.3549
G01 X0.3848 Y34.3644
G01 X0.4161 Y34.4677
G01 X0.4195 Y34.4769
G01 X0.4608 Y34.5767
G01 X0.4650 Y34.5856
G01 X0.5159 Y34.6808
G01 X0.5209 Y34.6892
G01 X0.5809 Y34.7789
G01 X0.5867 Y34.7868
G01 X0.6552 Y34.8703
G01 X0.6618 Y34.8775
G01 X0.7381 Y34.9539
G01 X0.7454 Y34.9605
G01 X0.8288 Y35.0289
G01 X0.8367 Y35.0348
G01 X0.9265 Y35.0948
G01 X0.9349 Y35.0998
G01 X1.0301 Y35.1507
G01 X1.0390 Y35.1549
G01 X1.1387 Y35.1962
G01 X1.1480 Y35.1995
G01 X1.2513 Y35.2309
G01 X1.2608 Y35.2332
G01 X1.3667 Y35.2543
G01 X1.3764 Y35.2557
G01 X1.4838 Y35.2663
G01 X1.5476 Y35.2681
G01 X8.9226 Y35.2681
G01 X8.9864 Y35.2663
G01 X9.0938 Y35.2557
G01 X9.1035 Y35.2543
G01 X9.2094 Y35.2332
G01 X9.2189 Y35.2309
G01 X9.3222 Y35.1995
G01 X9.3315 Y35.1962
G01 X9.4312 Y35.1549
G01 X9.4401 Y35.1507
G01 X9.5353 Y35.0998
G01 X9.5437 Y35.0948
G01 X9.6334 Y35.0348
G01 X9.6413 Y35.0289
G01 X9.7248 Y34.9605
G01 X9.7321 Y34.9539
G01 X9.8084 Y34.8775
G01 X9.8150 Y34.8703
G01 X9.8835 Y34.7868
G01 X9.8893 Y34.7789
G01 X9.9493 Y34.6892
G01 X9.9543 Y34.6808
G01 X10.0052 Y34.5856
G01 X10.0094 Y34.5767
G01 X10.0507 Y34.4769
G01 X10.0540 Y34.4677
G01 X10.0854 Y34.3644
G01 X10.0878 Y34.3549
G01 X10.1088 Y34.2490
G01 X10.1103 Y34.2393
G01 X10.1208 Y34.1319
G01 X10.1226 Y34.0681
G01 X10.1226 Y25.4785
G01 X15.1202 Y20.4810
G00 Z2.0000
G00 X20.1202 Y15.4810
G01 F60.00
G01 Z-0.7000
G01 F120.00
G01 X22.3548 Y13.2464
G01 X39.0876 Y13.2464
G00 X39.0876 Y13.2464
G01 F60.00
G01 Z-1.4000
G01 F120.00
G01 X22.3548 Y13.2464
G01 X20.1202 Y15.4810
G00 X20.1202 Y15.4810
G01 F60.00
G01 Z-1.9000
G01 F120.00
G01 X22.3548 Y13.2464
G01 X39.0876 Y13.2464
G00 Z2.0000
G00 X44.0876 Y13.2464
G01 F60.00
G01 Z-0.7000
G01 F120.00
G01 X60.6204 Y13.2464
G01 X62.8550 Y15.4810
G00 X62.8550 Y15.4810
G01 F60.00
G01 Z-1.4000
G01 F120.00
G01 X60.6204 Y13.2464
G01 X44.0876 Y13.2464
G00 X44.0876 Y13.2464
G01 F60.00
G01 Z-1.9000
G01 F120.00
G01 X60.6204 Y13.2464
G01 X62.8550 Y15.4810
G00 Z2.0000
G00 X67.8550 Y20.4810
G01 F60.00
G01 Z-0.7000
G01 F120.00
G01 X72.8525 Y25.4785
G01 X72.8525 Y34.0681
G01 X72.8539 Y34.1221
G01 X72.8543 Y34.1319
G01 X72.8649 Y34.2393
G01 X72.8664 Y34.2490
G01 X72.8874 Y34.3549
G01 X72.8898 Y34.3644
G01 X72.9211 Y34.4677
G01 X72.9245 Y34.4769
G01 X72.9658 Y34.5767
G01 X72.9700 Y34.5856
G01 X73.0209 Y34.6808
G01 X73.0259 Y34.6892
G01 X73.0859 Y34.7789
G01 X73.0917 Y34.7868
G01 X73.1602 Y34.8703
G01 X73.1668 Y34.8775
G01 X73.2431 Y34.9539
G01 X73.2504 Y34.9605
G01 X73.3338 Y35.0289
G01 X73.3417 Y35.0348
G01 X73.4315 Y35.0948
G01 X73.4399 Y35.0998
G01 X73.5351 Y35.1507
G01 X73.5440 Y35.1549
G01 X73.6437 Y35.1962
G01 X73.6530 Y35.1995
G01 X73.7563 Y35.2309
G01 X73.7658 Y35.2332
G01 X73.8717 Y35.2543
G01 X73.8814 Y35.2557
G01 X73.9888 Y35.2663
G01 X73.9986 Y35.2668
G01 X74.0526 Y35.2681
G01 X81.4276 Y35.2681
G01 X81.4914 Y35.2663
G01 X81.5988 Y35.2557
G01 X81.6085 Y35.2543
G01 X81.7144 Y35.2332
G01 X81.7239 Y35.2309
G01 X81.8272 Y35.1995
G01 X81.8365 Y35.1962
G01 X81.9362 Y35.1549
G01 X81.9451 Y35.1507
G01 X82.0403 Y35.0998
G01 X82.0487 Y35.0948
G01 X82.1384 Y35.0348
G01 X82.1463 Y35.0289
G01 X82.2298 Y34.9605
G01 X82.2371 Y34.9539
G01 X82.3134 Y34.8775
G01 X82.3200 Y34.8703
G01 X82.3885 Y34.7868
G01 X82.3943 Y34.7789
G01 X82.4543 Y34.6892
G01 X82.4593 Y34.6808
G01 X82.5102 Y34.5856
G01 X82.5144 Y34.5767
G01 X82.5557 Y34.4769
G01 X82.5590 Y34.4677
G01 X82.5904 Y34.3644
G01 X82.5928 Y34.3549
G01 X82.6138 Y34.2490
G01 X82.6153 Y34.2393
G01 X82.6258 Y34.1319
G01 X82.6276 Y34.0681
G01 X82.6276 Y20.4810
G00 X82.6276 Y20.4810
G01 F60.00
G01 Z-1.4000
G01 F120.00
G01 X82.6276 Y34.0681
G01 X82.6258 Y34.1319
G01 X82.6153 Y34.2393
G01 X82.6138 Y34.2490
G01 X82.5928 Y34.3549
G01 X82.5904 Y34.3644
G01 X82.5590 Y34.4677
G01 X82.5557 Y34.4769
G01 X82.5144 Y34.5767
G01 X82.5102 Y34.5856
G01 X82.4593 Y34.6808
G01 X82.4543 Y34.6892
G01 X82.3943 Y34.7789
G01 X82.3885 Y34.7868
G01 X82.3200 Y34.8703
G01 X82.3134 Y34.8775
G01 X82.2371 Y34.9539
G01 X82.2298 Y34.9605
G01 X82.1463 Y35.0289
G01 X82.1384 Y35.0348
G01 X82.0487 Y35.0948
G01 X82.0403 Y35.0998
G01 X81.9451 Y35.1507
G01 X81.9362 Y35.1549
G01 X81.8365 Y35.1962
G01 X81.8272 Y35.1995
G01 X81.7239 Y35.2309
G01 X81.7144 Y35.2332
G01 X81.6085 Y35.2543
G01 X81.5988 Y35.2557
G01 X81.4914 Y35.2663
G01 X81.4276 Y35.2681
G01 X74.0526 Y35.2681
G01 X73.9986 Y35.2668
G01 X73.9888 Y35.2663
G01 X73.8814 Y35.2557
G01 X73.8717 Y35.2543
G01 X73.7658 Y35.2332
G01 X73.7563 Y35.2309
G01 X73.6530 Y35.1995
G01 X73.6437 Y35.1962
G01 X73.5440 Y35.1549
G01 X73.5351 Y35.1507
G01 X73.4399 Y35.0998
G01 X73.4315 Y35.0948
G01 X73.3417 Y35.0348
G01 X73.3338 Y35.0289
G01 X73.2504 Y34.9605
G01 X73.2431 Y34.9539
G01 X73.1668 Y34.8775
G01 X73.1602 Y34.8703
G01 X73.0917 Y34.7868
G01 X73.0859 Y34.7789
G01 X73.0259 Y34.6892
G01 X73.0209 Y34.6808
G01 X72.9700 Y34.5856
G01 X72.9658 Y34.5767
G01 X72.9245 Y34.4769
G01 X72.9211 Y34.4677
G01 X72.8898 Y34.3644
G01 X72.8874 Y34.3549
G01 X72.8664 Y34.2490
G01 X72.8649 Y34.2393
G01 X72.8543 Y34.1319
G01 X72.8539 Y34.1221
G01 X72.8525 Y34.0681
G01 X72.8525 Y25.4785
G01 X67.8550 Y20.4810
G00 X67.8550 Y20.4810
G01 F60.00
G01 Z-1.9000
G01 F120.00
G01 X72.8525 Y25.4785
G01 X72.8525 Y34.0681
G01 X72.8539 Y34.1221
G01 X72.8543 Y34.1319
G01 X72.8649 Y34.2393
G01 X72.8664 Y34.2490
G01 X72.8874 Y34.3549
G01 X72.8898 Y34.3644
G01 X72.9211 Y34.4677
G01 X72.9245 Y34.4769
G01 X72.9658 Y34.5767
G01 X72.9700 Y34.5856
G01 X73.0209 Y34.6808
G01 X73.0259 Y34.6892
G01 X73.0859 Y34.7789
G01 X73.0917 Y34.7868
G01 X73.1602 Y34.8703
G01 X73.1668 Y34.8775
G01 X73.2431 Y34.9539
G01 X73.2504 Y34.9605
G01 X73.3338 Y35.0289
G01 X73.3417 Y35.0348
G01 X73.4315 Y35.0948
G01 X73.4399 Y35.0998
G01 X73.5351 Y35.1507
G01 X73.5440 Y35.1549
G01 X73.6437 Y35.1962
G01 X73.6530 Y35.1995
G01 X73.7563 Y35.2309
G01 X73.7658 Y35.2332
G01 X73.8717 Y35.2543
G01 X73.8814 Y35.2557
G01 X73.9888 Y35.2663
G01 X73.9986 Y35.2668
G01 X74.0526 Y35.2681
G01 X81.4276 Y35.2681
G01 X81.4914 Y35.2663
G01 X81.5988 Y35.2557
G01 X81.6085 Y35.2543
G01 X81.7144 Y35.2332
G01 X81.7239 Y35.2309
G01 X81.8272 Y35.1995
G01 X81.8365 Y35.1962
G01 X81.9362 Y35.1549
G01 X81.9451 Y35.1507
G01 X82.0403 Y35.0998
G01 X82.0487 Y35.0948
G01 X82.1384 Y35.0348
G01 X82.1463 Y35.0289
G01 X82.2298 Y34.9605
G01 X82.2371 Y34.9539
G01 X82.3134 Y34.8775
G01 X82.3200 Y34.8703
G01 X82.3885 Y34.7868
G01 X82.3943 Y34.7789
G01 X82.4543 Y34.6892
G01 X82.4593 Y34.6808
G01 X82.5102 Y34.5856
G01 X82.5144 Y34.5767
G01 X82.5557 Y34.4769
G01 X82.5590 Y34.4677
G01 X82.5904 Y34.3644
G01 X82.5928 Y34.3549
G01 X82.6138 Y34.2490
G01 X82.6153 Y34.2393
G01 X82.6258 Y34.1319
G01 X82.6276 Y34.0681
G01 X82.6276 Y20.4810
G00 Z2.0000
G00 X82.6276 Y15.4810
G01 F60.00
G01 Z-0.7000
G01 F120.00
G01 X82.6276 Y13.6338
G01 X82.6258 Y13.5700
G01 X82.6153 Y13.4626
G01 X82.6138 Y13.4528
G01 X82.5928 Y13.3470
G01 X82.5904 Y13.3374
G01 X82.5590 Y13.2341
G01 X82.5557 Y13.2249
G01 X82.5144 Y13.1252
G01 X82.5102 Y13.1163
G01 X82.4593 Y13.0211
G01 X82.4543 Y13.0127
G01 X82.3943 Y12.9229
G01 X82.3885 Y12.9150
G01 X82.3200 Y12.8316
G01 X82.2762 Y12.7852
G01 X70.3363 Y0.8453
G01 X70.2899 Y0.8015
G01 X70.2064 Y0.7330
G01 X70.1985 Y0.7271
G01 X70.1088 Y0.6672
G01 X70.1004 Y0.6621
G01 X70.0052 Y0.6112
G01 X69.9963 Y0.6070
G01 X69.8966 Y0.5657
G01 X69.8873 Y0.5624
G01 X69.7840 Y0.5311
G01 X69.7745 Y0.5287
G01 X69.6686 Y0.5076
G01 X69.6589 Y0.5062
G01 X69.5515 Y0.4956
G01 X69.4877 Y0.4938
G01 X44.0876 Y0.4938
G00 X44.0876 Y0.4938
G01 F60.00
G01 Z-1.4000
G01 F120.00
G01 X69.4877 Y0.4938
G01 X69.5515 Y0.4956
G01 X69.6589 Y0.5062
G01 X69.6686 Y0.5076
G01 X69.7745 Y0.5287
G01 X69.7840 Y0.5311
G01 X69.8873 Y0.5624
G01 X69.8966 Y0.5657
G01 X69.9963 Y0.6070
G01 X70.0052 Y0.6112
G01 X70.1004 Y0.6621
G01 X70.1088 Y0.6672
G01 X70.1985 Y0.7271
G01 X70.2064 Y0.7330
G01 X70.2899 Y0.8015
G01 X70.3363 Y0.8453
G01 X82.2762 Y12.7852
G01 X82.3200 Y12.8316
G01 X82.3885 Y12.9150
G01 X82.3943 Y12.9229
G01 X82.4543 Y13.0127
G01 X82.4593 Y13.0211
G01 X82.5102 Y13.1163
G01 X82.5144 Y13.1252
G01 X82.5557 Y13.2249
G01 X82.5590 Y13.2341
G01 X82.5904 Y13.3374
G01 X82.5928 Y13.3470
G01 X82.6138 Y13.4528
G01 X82.6153 Y13.4626
G01 X82.6258 Y13.5700
G01 X82.6276 Y13.6338
G01 X82.6276 Y15.4810
G00 X82.6276 Y15.4810
G01 F60.00
G01 Z-1.9000
G01 F120.00
G01 X82.6276 Y13.6338
G01 X82.6258 Y13.5700
G01 X82.6153 Y13.4626
G01 X82.6138 Y13.4528
G01 X82.5928 Y13.3470
G01 X82.5904 Y13.3374
G01 X82.5590 Y13.2341
G01 X82.5557 Y13.2249
G01 X82.5144 Y13.1252
G01 X82.5102 Y13.1163
G01 X82.4593 Y13.0211
G01 X82.4543 Y13.0127
G01 X82.3943 Y12.9229
G01 X82.3885 Y12.9150
G01 X82.3200 Y12.8316
G01 X82.2762 Y12.7852
G01 X70.3363 Y0.8453
G01 X70.2899 Y0.8015
G01 X70.2064 Y0.7330
G01 X70.1985 Y0.7271
G01 X70.1088 Y0.6672
G01 X70.1004 Y0.6621
G01 X70.0052 Y0.6112
G01 X69.9963 Y0.6070
G01 X69.8966 Y0.5657
G01 X69.8873 Y0.5624
G01 X69.7840 Y0.5311
G01 X69.7745 Y0.5287
G01 X69.6686 Y0.5076
G01 X69.6589 Y0.5062
G01 X69.5515 Y0.4956
G01 X69.4877 Y0.4938
G01 X44.0876 Y0.4938
G00 Z2.0000
M05
G00 Z2.0000
G00 Z15.00
M2
